{
    "links": {
        "self": "http://www.neowsapp.com/rest/v1/neo/3843918?api_key=iIulBulltgU6a56xZRHN4H3l9WmuAYTsLGpBGhQ2"
    },
    "id": "3843918",
    "neo_reference_id": "3843918",
    "name": "(2019 ST1)",
    "designation": "2019 ST1",
    "nasa_jpl_url": "http://ssd.jpl.nasa.gov/sbdb.cgi?sstr=3843918",
    "absolute_magnitude_h": 23.8,
    "estimated_diameter": {
        "kilometers": {
            "estimated_diameter_min": 0.046190746,
            "estimated_diameter_max": 0.1032856481
        },
        "meters": {
            "estimated_diameter_min": 46.1907460282,
            "estimated_diameter_max": 103.2856480504
        },
        "miles": {
            "estimated_diameter_min": 0.0287015901,
            "estimated_diameter_max": 0.0641787064
        },
        "feet": {
            "estimated_diameter_min": 151.544447199,
            "estimated_diameter_max": 338.8636855496
        }
    },
    "is_potentially_hazardous_asteroid": false,
    "close_approach_data": [
        {
            "close_approach_date": "2019-09-13",
            "close_approach_date_full": "2019-Sep-13 08:04",
            "epoch_date_close_approach": 1568361840000,
            "relative_velocity": {
                "kilometers_per_second": "21.4553826144",
                "kilometers_per_hour": "77239.377411691",
                "miles_per_hour": "47993.5453700588"
            },
            "miss_distance": {
                "astronomical": "0.0507376297",
                "lunar": "19.7369379533",
                "kilometers": "7590241.331968739",
                "miles": "4716357.2632930382"
            },
            "orbiting_body": "Earth"
        }
    ],
    "orbital_data": {
        "orbit_id": "1",
        "orbit_determination_date": "2019-09-22 16:12:04",
        "first_observation_date": "2019-09-19",
        "last_observation_date": "2019-09-21",
        "data_arc_in_days": 2,
        "observations_used": 10,
        "orbit_uncertainty": "9",
        "minimum_orbit_intersection": ".0326445",
        "jupiter_tisserand_invariant": "4.499",
        "epoch_osculation": "2458746.5",
        "eccentricity": ".6226437106390159",
        "semi_major_axis": "1.409438116915267",
        "inclination": "7.70155298857679",
        "ascending_node_longitude": "1.884577473703733",
        "orbital_period": "611.1776235698704",
        "perihelion_distance": ".5318603378830781",
        "perihelion_argument": "242.5529557158182",
        "aphelion_distance": "2.287015895947456",
        "perihelion_time": "2458687.244782859388",
        "mean_anomaly": "34.90291095086474",
        "mean_motion": ".5890268002569378",
        "equinox": "J2000",
        "orbit_class": {
            "orbit_class_type": "APO",
            "orbit_class_description": "Near-Earth asteroid orbits which cross the Earth’s orbit similar to that of 1862 Apollo",
            "orbit_class_range": "a (semi-major axis) > 1.0 AU; q (perihelion) < 1.017 AU"
        }
    },
    "is_sentry_object": false
}